IRIDIUM 119             
1 42959U 17061E   24230.60474632  .00000108  00000+0  31543-4 0  9995
2 42959  86.3976 304.6493 0002345  87.8095 272.3369 14.34210164358981
IRIDIUM 107             
1 42960U 17061F   24230.62377226  .00000235  00000+0  76922-4 0  9991
2 42960  86.3983 304.6605 0002016  78.4025 281.7397 14.34213034358995
IRIDIUM 132             
1 42961U 17061G   24229.30450500  .00000750  00000+0  26074-3 0  9996
2 42961  86.3974 305.1942 0002004  88.2132 271.9294 14.34224450358802
IRIDIUM 136             
1 42962U 17061H   24230.24322963  .00000038  00000+0  64571-5 0  9998
2 42962  86.3980 304.8060 0002389  92.2872 267.8598 14.34210527358956
IRIDIUM 139             
1 42963U 17061J   24230.24957026  .00000637  00000+0  22053-3 0  9995
2 42963  86.3977 304.8538 0002166  83.0212 277.1230 14.34212000358968
IRIDIUM 125             
1 42964U 17061K   24230.30664921  .00000399  00000+0  13542-3 0  9990
2 42964  86.3982 304.8791 0002585  83.3424 276.8066 14.34212280358984
IRIDIUM 135             
1 43070U 17083A   24230.07147048 -.00000041  00000+0 -21731-4 0  9999
2 43070  86.3930 241.6104 0002009  98.3171 261.8253 14.34216518348246
IRIDIUM 138             
1 43071U 17083B   24230.09684549  .00000035  00000+0  53288-5 0  9998
2 43071  86.3918 241.3093 0002700  88.4463 271.7042 14.34215523348239
